NORAD_CAT_ID,OBJECT_NAME,OBJECT_TYPE,EPOCH,MEAN_MOTION,ECCENTRICITY,INCLINATION,RA_OF_ASC_NODE,ARG_OF_PERICENTER,MEAN_ANOMALY,BSTAR,MEAN_MOTION_DOT,MEAN_MOTION_DDOT,TLE_LINE0,TLE_LINE1,TLE_LINE2,SEMIMAJOR_AXIS,PERIOD,APOGEE,PERIGEE,DECAYED
53030.0,STARLINK-4160,PAYLOAD,2024-08-12 23:11:59,15.08850967,0.000161,53.2154,139.8529,127.8347,232.2791,0.0005771,8.911e-05,0.0,0 STARLINK-4160,1 53030U 22076AW  24225.96666171  .00008911  00000-0  57710-3 0  9997,2 53030  53.2154 139.8529 0001610 127.8347 232.2791 15.08850967116373,6917.847,95.437,540.826,538.598,0.0
53030.0,STARLINK-4160,PAYLOAD,2024-08-13 00:47:23,15.08819438,0.0001866,53.2146,139.5558,100.9863,259.1339,-0.00080038,-0.00012997,0.0,0 STARLINK-4160,1 53030U 22076AW  24226.03290900 -.00012997  00000-0 -80038-3 0  9999,2 53030  53.2146 139.5558 0001866 100.9863 259.1339 15.08819438116858,6917.943,95.439,541.099,538.517,0.0
53030.0,STARLINK-4160,PAYLOAD,2024-08-13 11:55:07,15.08774997,0.0001451,53.2151,137.4778,91.4028,268.713,0.00015901,2.239e-05,0.0,0 STARLINK-4160,1 53030U 22076AW  24226.49661431  .00002239  00000-0  15901-3 0  9993,2 53030  53.2151 137.4778 0001451  91.4028 268.7130 15.08774997116925,6918.079,95.442,540.948,538.94,0.0
53030.0,STARLINK-4160,PAYLOAD,2024-08-13 23:02:50,15.08801881,0.0001968,53.2138,135.3992,38.1566,321.9565,0.0012322,0.00019357,0.0,0 STARLINK-4160,1 53030U 22076AW  24226.96030591  .00019357  00000-0  12322-2 0  9994,2 53030  53.2138 135.3992 0001968  38.1566 321.9565 15.08801881116526,6917.997,95.44,541.223,538.5,0.0
53030.0,STARLINK-4160,PAYLOAD,2024-08-14 03:48:59,15.08866328,0.000143,53.2147,134.5031,91.4674,268.6482,0.0040297,0.00064478,0.0,0 STARLINK-4160,1 53030U 22076AW  24227.15902055  .00064478  00000-0  40297-2 0  9995,2 53030  53.2147 134.5031 0001430  91.4674 268.6482 15.08866328117025,6917.8,95.436,540.654,538.676,0.0
53030.0,STARLINK-4160,PAYLOAD,2024-08-14 22:53:35,15.08893739,0.0001338,53.2148,130.9324,93.3252,266.7893,0.0015811,0.00025002,0.0,0 STARLINK-4160,1 53030U 22076AW  24227.95388207  .00025002  00000-0  15811-2 0  9994,2 53030  53.2148 130.9324 0001338  93.3252 266.7893 15.08893739116672,6917.716,95.434,540.507,538.656,0.0
53030.0,STARLINK-4160,PAYLOAD,2024-08-15 00:28:58,15.0889286,0.0001341,53.2151,130.6388,78.7056,281.4087,0.0014365,0.00022681,0.0,0 STARLINK-4160,1 53030U 22076AW  24228.02012071  .00022681  00000-0  14365-2 0  9999,2 53030  53.2151 130.6388 0001341  78.7056 281.4087 15.08892860117153,6917.719,95.434,540.511,538.656,0.0
53030.0,STARLINK-4160,PAYLOAD,2024-08-15 10:01:16,15.08874489,0.0001387,53.2151,128.8542,81.8554,278.2595,0.00075314,0.0001173,0.0,0 STARLINK-4160,1 53030U 22076AW  24228.41755481  .00011730  00000-0  75314-3 0  9996,2 53030  53.2151 128.8542 0001387  81.8554 278.2595 15.08874489116741,6917.775,95.435,540.599,538.68,0.0
53030.0,STARLINK-4160,PAYLOAD,2024-08-15 21:08:58,15.08848849,0.0001093,53.2155,126.7698,78.5309,281.5806,0.00092136,0.00014409,0.0,0 STARLINK-4160,1 53030U 22076AW  24228.88123428  .00014409  00000-0  92136-3 0  9994,2 53030  53.2155 126.7698 0001093  78.5309 281.5806 15.08848849117282,6917.853,95.437,540.474,538.962,0.0
53030.0,STARLINK-4160,PAYLOAD,2024-08-15 22:44:21,15.08856739,0.0001018,53.2152,126.4735,83.9577,276.1531,0.0020125,0.00031901,0.0,0 STARLINK-4160,1 53030U 22076AW  24228.94747408  .00031901  00000-0  20125-2 0  9995,2 53030  53.2152 126.4735 0001018  83.9577 276.1531 15.08856739116823,6917.829,95.436,540.398,538.99,0.0
53030.0,STARLINK-4160,PAYLOAD,2024-08-16 00:19:44,15.08859298,0.0001002,53.2151,126.1766,88.0672,272.0435,0.0028042,0.00044647,0.0,0 STARLINK-4160,1 53030U 22076AW  24229.01371460  .00044647  00000-0  28042-2 0  9992,2 53030  53.2151 126.1766 0001002  88.0672 272.0435 15.08859298117303,6917.821,95.436,540.38,538.993,0.0
53030.0,STARLINK-4160,PAYLOAD,2024-08-16 22:35:08,15.08879573,0.0001088,53.2154,122.0137,116.5414,243.569,0.0027623,0.00043996,0.0,0 STARLINK-4160,1 53030U 22076AW  24229.94107398  .00043996  00000-0  27623-2 0  9991,2 53030  53.2154 122.0137 0001088 116.5414 243.5690 15.08879573117447,6917.759,95.435,540.377,538.872,0.0
53030.0,STARLINK-4160,PAYLOAD,2024-08-18 04:47:28,15.08845538,0.0001019,53.2149,116.3652,98.5349,261.5759,0.00057293,8.843e-05,0.0,0 STARLINK-4160,1 53030U 22076AW  24231.19963834  .00008843  00000-0  57293-3 0  9995,2 53030  53.2149 116.3652 0001019  98.5349 261.5759 15.08845538117630,6917.863,95.437,540.433,539.024,0.0
53030.0,STARLINK-4160,PAYLOAD,2024-08-18 06:22:52,15.08833736,0.0001282,53.2156,116.0721,78.9187,281.1949,7.7974e-05,9.53e-06,0.0,0 STARLINK-4160,1 53030U 22076AW  24231.26588050  .00000953  00000-0  77974-4 0  9999,2 53030  53.2156 116.0721 0001282  78.9187 281.1949 15.08833736117643,6917.9,95.438,540.651,538.878,0.0
53030.0,STARLINK-4160,PAYLOAD,2024-08-18 20:41:19,15.08851714,0.0001204,53.2154,113.3946,73.8494,286.2631,0.0004285,6.54e-05,0.0,0 STARLINK-4160,1 53030U 22076AW  24231.86203588  .00006540  00000-0  42850-3 0  9997,2 53030  53.2154 113.3946 0001204  73.8494 286.2631 15.08851714117739,6917.845,95.437,540.542,538.877,0.0
53030.0,STARLINK-4160,PAYLOAD,2024-08-18 22:16:42,15.08858526,0.0001301,53.2143,113.0939,56.4782,303.6334,0.00068795,0.00010683,0.0,0 STARLINK-4160,1 53030U 22076AW  24231.92827499  .00010683  00000-0  68795-3 0  9996,2 53030  53.2143 113.0939 0001301  56.4782 303.6334 15.08858526117272,6917.824,95.436,540.589,538.789,0.0
53030.0,STARLINK-4160,PAYLOAD,2024-08-19 09:24:24,15.08850456,0.000136,53.2144,111.014,78.3007,281.8138,0.00010495,1.383e-05,0.0,0 STARLINK-4160,1 53030U 22076AW  24232.39195208  .00001383  00000-0  10495-3 0  9995,2 53030  53.2144 111.0140 0001360  78.3007 281.8138 15.08850456117344,6917.848,95.437,540.654,538.773,0.0
53030.0,STARLINK-4160,PAYLOAD,2024-08-19 23:42:53,15.0882976,0.0001285,53.2151,108.3396,81.4958,278.618,-0.0002093,-3.616e-05,0.0,0 STARLINK-4160,1 53030U 22076AW  24232.98811915 -.00003616  00000-0 -20930-3 0  9998,2 53030  53.2151 108.3396 0001285  81.4958 278.6180 15.08829760117907,6917.912,95.438,540.666,538.888,0.0
53030.0,STARLINK-4160,PAYLOAD,2024-08-20 20:22:54,15.0885011,0.0001635,53.2162,104.4713,84.6122,275.5057,0.00082381,0.00012851,0.0,0 STARLINK-4160,1 53030U 22076AW  24233.84924040  .00012851  00000-0  82381-3 0  9995,2 53030  53.2162 104.4713 0001635  84.6122 275.5057 15.08850110118033,6917.849,95.437,540.846,538.583,0.0
53030.0,STARLINK-4160,PAYLOAD,2024-08-21 15:27:32,15.08848786,0.0001649,53.2162,100.9023,89.3589,270.7592,0.00049185,7.55e-05,0.0,0 STARLINK-4160,1 53030U 22076AW  24234.64412055  .00007550  00000-0  49185-3 0  9997,2 53030  53.2162 100.9023 0001649  89.3589 270.7592 15.08848786117689,6917.854,95.437,540.859,538.578,0.0
53030.0,STARLINK-4160,PAYLOAD,2024-08-21 21:49:04,15.08842115,0.0001406,53.2159,99.7106,92.6213,267.4941,0.0002992,4.477e-05,0.0,0 STARLINK-4160,1 53030U 22076AW  24234.90908108  .00004477  00000-0  29920-3 0  9995,2 53030  53.2159  99.7106 0001406  92.6213 267.4941 15.08842115118192,6917.874,95.437,540.712,538.766,0.0
